OBJECT_NAME,OBJECT_ID,EPOCH,MEAN_MOTION,ECCENTRICITY,INCLINATION,RA_OF_ASC_NODE,ARG_OF_PERICENTER,MEAN_ANOMALY,EPHEMERIS_TYPE,CLASSIFICATION_TYPE,NORAD_CAT_ID,ELEMENT_SET_NO,REV_AT_EPOCH,BSTAR,MEAN_MOTION_DOT,MEAN_MOTION_DDOT
ICESAT-2,2018-070A,2026-06-05T02:33:44.781984,15.28300077,.0004741,92.0073,287.7168,120.7328,239.4389,0,U,43613,999,43061,.42618E-3,.1175E-3,0
HYSIS,2018-096A,2026-06-05T03:59:33.326880,14.78671545,.0001588,97.9840,223.0076,114.9247,245.2129,0,U,43719,999,40564,.2169E-3,.1538E-4,0
KAZSTSAT,2018-099AB,2026-06-05T00:31:44.639616,14.99833253,.0007509,97.4264,188.5043,101.4092,258.7976,0,U,43783,999,40948,.11943E-3,.1423E-4,0
SAUDISAT 5A,2018-102A,2026-06-05T04:19:58.173888,15.27920442,.0010065,97.3068,217.9936,167.1351,193.0147,0,U,43831,999,41384,.2554E-3,.6896E-4,0
SAUDISAT 5B,2018-102C,2026-06-05T04:50:02.804640,15.28183973,.0010713,97.3176,221.0619,169.7948,190.3511,0,U,43833,999,41396,.23997E-3,.6529E-4,0
GAOFEN-10R,2019-066A,2026-06-05T05:04:46.545312,14.83033961,.0005787,98.0497,109.7042,161.5140,198.6284,0,U,44622,999,36060,.1775E-3,.1389E-4,0
CARTOSAT-3,2019-081A,2026-06-04T18:35:41.308224,15.19359044,.00123272,97.4308,217.8408,187.9749,172.1292,0,U,44804,999,36158,.18847441E-3,.3923E-4,0
GAOFEN-12 01,2019-082A,2026-06-05T04:25:15.474432,14.80448618,.0002519,97.8101,162.8806,84.2690,275.8809,0,U,44819,999,35231,.69393E-4,.48E-5,0
CSG-1,2019-092A,2026-06-05T04:04:03.855648,14.82154571,.0001429,97.8887,339.9462,91.2942,268.8435,0,U,44873,999,34969,.73771E-4,.535E-5,0
NEMO-HD,2020-061F,2026-06-05T05:00:14.383584,15.44344814,.0002651,97.1921,218.2840,94.5556,265.5996,0,U,46277,999,32013,.27327E-3,.12521E-3,0
SENTINEL-6A,2020-086A,2026-06-04T04:52:15.199680,12.80929619,.0007954,66.0385,162.0209,270.1989,89.8115,0,U,46984,999,25866,.18588762E-4,-.57E-6,0
CAS500-1,2021-022A,2026-06-05T05:09:12.411072,15.20189971,.0004503,97.3909,51.7093,349.8194,10.2949,0,U,47932,999,28894,.35473E-3,.7619E-4,0
GAOFEN-12 02,2021-026A,2026-06-05T04:39:20.207232,14.80286621,.0003329,97.9920,154.4239,276.1327,83.9506,0,U,48079,999,27998,.6678E-4,.456E-5,0
PLEIADES NEO 3,2021-034A,2026-06-05T02:20:06.758016,14.81673313,.0001387,97.8936,231.0382,97.7883,262.3487,0,U,48268,999,27586,.44603E-4,.299E-5,0
PLEIADES NEO 4,2021-073E,2026-06-04T10:56:15.219744,14.81677018,.00014443,97.8930,230.4012,87.6628,272.4750,0,U,49070,999,25948,.2171362E-3,.1657E-4,0
LANDSAT 9,2021-088A,2026-06-05T01:00:21.923424,14.57126108,.0001503,98.1854,226.3638,95.7050,264.4320,0,U,49260,999,24923,.10362E-3,.422E-5,0
CSG-2,2022-008A,2026-06-05T04:52:38.615808,14.82164971,.0001467,97.8880,339.9746,83.4382,276.6998,0,U,51444,999,23481,.73596E-4,.534E-5,0
GAOFEN-12 03,2022-069A,2026-06-05T05:19:15.940992,14.80014446,.0001484,97.8291,44.3929,109.9687,250.1685,0,U,52912,999,21284,.10859E-3,.771E-5,0
SWOT,2022-173A,2026-06-04T21:53:57.547104,14.00173196,.0000198,77.6112,51.8802,99.5238,260.5936,0,U,54754,999,17743,.23213E-4,.32E-6,0
GAOFEN-12 04,2023-123A,2026-06-05T04:08:12.036192,14.80205162,.000177,97.9129,74.3625,88.6690,271.4725,0,U,57654,999,15085,.16716E-3,.1219E-4,0
PARS 1,2024-039Q,2026-06-05T04:59:12.083136,15.45470026,.0010593,97.4824,136.7531,147.9774,212.2120,0,U,59065,999,12679,.26259E-3,.12516E-3,0
RESURS-P 4,2024-061A,2026-06-05T04:19:45.213024,15.32060864,.0001249,97.2750,104.2894,130.0292,230.1060,0,U,59371,999,12192,.12053E-3,.3654E-4,0
LEGION 1,2024-081A,2026-06-05T03:40:26.681376,15.16579708,.0010548,97.5014,234.1392,56.4352,303.7887,0,U,59625,999,11571,.21677E-3,.417E-4,0
LEGION 2,2024-081B,2026-06-05T01:13:21.750816,15.16559613,.0011964,97.5015,234.1360,26.1376,334.0459,0,U,59626,999,11570,.22695E-3,.4368E-4,0
ALOS-4 (DAICHI-4),2024-123A,2026-06-05T04:29:59.274240,14.79470217,.0001687,97.9239,253.5296,99.1131,261.0272,0,U,60182,999,10410,.24964E-3,.1813E-4,0
LEGION 3,2024-146A,2026-06-05T03:18:52.295328,15.15942841,.0006753,45.0006,95.1718,92.8503,267.3149,0,U,60452,999,10019,.25449E-3,.4704E-4,0
LEGION 4,2024-146B,2026-06-05T03:23:15.182016,15.15945496,.0013964,44.9995,187.0666,245.8824,114.0594,0,U,60453,999,9904,.18867E-3,.3422E-4,0
SENTINEL-2C,2024-157A,2026-06-05T01:47:28.114080,14.30814428,.000121,98.5692,231.0274,79.7260,280.4059,0,U,60989,999,9125,.62929E-4,.121E-5,0
IONOSFERA-M 1,2024-199A,2026-06-05T04:01:59.392992,14.22752007,.0001561,98.7187,29.4664,126.3371,233.7951,0,U,61735,999,12599,.41192E-4,.48E-6,0
IONOSFERA-M 2,2024-199B,2026-06-05T01:28:52.739328,14.22755306,.0001509,98.7186,29.2718,49.7064,310.4245,0,U,61736,999,12910,.53648E-4,.76E-6,0
PRSC-EO1,2025-012A,2026-06-04T23:51:35.030880,15.17604902,.0004204,97.4223,228.6917,310.4397,49.6470,0,U,62725,999,7634,.25052E-3,.4971E-4,0
