[ {"name": "ICESAT-2", "line1": "1 43613U 18070A   26156.10676831  .00011750  00000+0  42618-3 0  9992", "line2": "2 43613  92.0073 287.7168 0004741 120.7328 239.4389 15.28300077430613"}, {"name": "HYSIS", "line1": "1 43719U 18096A   26156.16635795  .00001538  00000+0  21690-3 0  9997", "line2": "2 43719  97.9840 223.0076 0001588 114.9247 245.2129 14.78671545405645"}, {"name": "KAZSTSAT", "line1": "1 43783U 18099AB  26156.02204444  .00001423  00000+0  11943-3 0  9992", "line2": "2 43783  97.4264 188.5043 0007509 101.4092 258.7976 14.99833253409482"}, {"name": "SAUDISAT 5A", "line1": "1 43831U 18102A   26156.18053442  .00006896  00000+0  25540-3 0  9995", "line2": "2 43831  97.3068 217.9936 0010065 167.1351 193.0147 15.27920442413848"}, {"name": "SAUDISAT 5B", "line1": "1 43833U 18102C   26156.20142135  .00006529  00000+0  23997-3 0  9995", "line2": "2 43833  97.3176 221.0619 0010713 169.7948 190.3511 15.28183973413963"}, {"name": "GAOFEN-10R", "line1": "1 44622U 19066A   26156.21164983  .00001389  00000+0  17750-3 0  9997", "line2": "2 44622  98.0497 109.7042 0005787 161.5140 198.6284 14.83033961360606"}, {"name": "CARTOSAT-3", "line1": "1 44804U 19081A   26155.77478366  .00003923  00000+0  18847-3 0  9993", "line2": "2 44804  97.4308 217.8408 0012327 187.9749 172.1292 15.19359044361581"}, {"name": "GAOFEN-12 01", "line1": "1 44819U 19082A   26156.18420688  .00000480  00000+0  69393-4 0  9998", "line2": "2 44819  97.8101 162.8806 0002519  84.2690 275.8809 14.80448618352318"}, {"name": "CSG-1", "line1": "1 44873U 19092A   26156.16948907  .00000535  00000+0  73771-4 0  9992", "line2": "2 44873  97.8887 339.9462 0001429  91.2942 268.8435 14.82154571349699"}, {"name": "NEMO-HD", "line1": "1 46277U 20061F   26156.20849981  .00012521  00000+0  27327-3 0  9990", "line2": "2 46277  97.1921 218.2840 0002651  94.5556 265.5996 15.44344814320139"}, {"name": "SENTINEL-6A", "line1": "1 46984U 20086A   26155.20295370 -.00000057  00000+0  18589-4 0  9991", "line2": "2 46984  66.0385 162.0209 0007954 270.1989  89.8115 12.80929619258668"}, {"name": "CAS500-1", "line1": "1 47932U 21022A   26156.21472698  .00007619  00000+0  35473-3 0  9998", "line2": "2 47932  97.3909  51.7093 0004503 349.8194  10.2949 15.20189971288948"}, {"name": "GAOFEN-12 02", "line1": "1 48079U 21026A   26156.19398388  .00000456  00000+0  66780-4 0  9993", "line2": "2 48079  97.9920 154.4239 0003329 276.1327  83.9506 14.80286621279983"}, {"name": "PLEIADES NEO 3", "line1": "1 48268U 21034A   26156.09730044  .00000299  00000+0  44603-4 0  9995", "line2": "2 48268  97.8936 231.0382 0001387  97.7883 262.3487 14.81673313275869"}, {"name": "PLEIADES NEO 4", "line1": "1 49070U 21073E   26155.45573171  .00001657  00000+0  21714-3 0  9991", "line2": "2 49070  97.8930 230.4012 0001444  87.6628 272.4750 14.81677018259488"}, {"name": "LANDSAT 9", "line1": "1 49260U 21088A   26156.04192041  .00000422  00000+0  10362-3 0  9993", "line2": "2 49260  98.1854 226.3638 0001503  95.7050 264.4320 14.57126108249239"}, {"name": "CSG-2", "line1": "1 51444U 22008A   26156.20322472  .00000534  00000+0  73596-4 0  9997", "line2": "2 51444  97.8880 339.9746 0001467  83.4382 276.6998 14.82164971234815"}, {"name": "GAOFEN-12 03", "line1": "1 52912U 22069A   26156.22171228  .00000771  00000+0  10859-3 0  9993", "line2": "2 52912  97.8291  44.3929 0001484 109.9687 250.1685 14.80014446212841"}, {"name": "SWOT", "line1": "1 54754U 22173A   26155.91247161  .00000032  00000+0  23213-4 0  9999", "line2": "2 54754  77.6112  51.8802 0000198  99.5238 260.5936 14.00173196177434"}, {"name": "GAOFEN-12 04", "line1": "1 57654U 23123A   26156.17236153  .00001219  00000+0  16716-3 0  9992", "line2": "2 57654  97.9129  74.3625 0001770  88.6690 271.4725 14.80205162150851"}, {"name": "PARS 1", "line1": "1 59065U 24039Q   26156.20777874  .00012516  00000+0  26259-3 0  9996", "line2": "2 59065  97.4824 136.7531 0010593 147.9774 212.2120 15.45470026126793"}, {"name": "RESURS-P 4", "line1": "1 59371U 24061A   26156.18038441  .00003654  00000+0  12053-3 0  9998", "line2": "2 59371  97.2750 104.2894 0001249 130.0292 230.1060 15.32060864121920"}, {"name": "LEGION 1", "line1": "1 59625U 24081A   26156.15308659  .00004170  00000+0  21677-3 0  9996", "line2": "2 59625  97.5014 234.1392 0010548  56.4352 303.7887 15.16579708115712"}, {"name": "LEGION 2", "line1": "1 59626U 24081B   26156.05094619  .00004368  00000+0  22695-3 0  9994", "line2": "2 59626  97.5015 234.1360 0011964  26.1376 334.0459 15.16559613115706"}, {"name": "ALOS-4 (DAICHI-4)", "line1": "1 60182U 24123A   26156.18749160  .00001813  00000+0  24964-3 0  9995", "line2": "2 60182  97.9239 253.5296 0001687  99.1131 261.0272 14.79470217104104"}, {"name": "LEGION 3", "line1": "1 60452U 24146A   26156.13810527  .00004704  00000+0  25449-3 0  9992", "line2": "2 60452  45.0006  95.1718 0006753  92.8503 267.3149 15.15942841100196"}, {"name": "LEGION 4", "line1": "1 60453U 24146B   26156.14114794  .00003422  00000+0  18867-3 0  9999", "line2": "2 60453  44.9995 187.0666 0013964 245.8824 114.0594 15.15945496 99045"}, {"name": "SENTINEL-2C", "line1": "1 60989U 24157A   26156.07463095  .00000121  00000+0  62929-4 0  9990", "line2": "2 60989  98.5692 231.0274 0001210  79.7260 280.4059 14.30814428 91257"}, {"name": "IONOSFERA-M 1", "line1": "1 61735U 24199A   26156.16804853  .00000048  00000+0  41192-4 0  9994", "line2": "2 61735  98.7187  29.4664 0001561 126.3371 233.7951 14.22752007125997"}, {"name": "IONOSFERA-M 2", "line1": "1 61736U 24199B   26156.06172152  .00000076  00000+0  53648-4 0  9994", "line2": "2 61736  98.7186  29.2718 0001509  49.7064 310.4245 14.22755306129105"}, {"name": "PRSC-EO1", "line1": "1 62725U 25012A   26155.99415545  .00004971  00000+0  25052-3 0  9990", "line2": "2 62725  97.4223 228.6917 0004204 310.4397  49.6470 15.17604902 76348"}]